{
    "links": {
        "self": "http://www.neowsapp.com/rest/v1/neo/54016309?api_key=iIulBulltgU6a56xZRHN4H3l9WmuAYTsLGpBGhQ2"
    },
    "id": "54016309",
    "neo_reference_id": "54016309",
    "name": "(2020 FZ2)",
    "designation": "2020 FZ2",
    "nasa_jpl_url": "http://ssd.jpl.nasa.gov/sbdb.cgi?sstr=54016309",
    "absolute_magnitude_h": 25.113,
    "estimated_diameter": {
        "kilometers": {
            "estimated_diameter_min": 0.0252321918,
            "estimated_diameter_max": 0.056420896
        },
        "meters": {
            "estimated_diameter_min": 25.232191763,
            "estimated_diameter_max": 56.4208960034
        },
        "miles": {
            "estimated_diameter_min": 0.0156785522,
            "estimated_diameter_max": 0.0350583086
        },
        "feet": {
            "estimated_diameter_min": 82.7827840237,
            "estimated_diameter_max": 185.1079324436
        }
    },
    "is_potentially_hazardous_asteroid": false,
    "close_approach_data": [
        {
            "close_approach_date": "2020-03-27",
            "close_approach_date_full": "2020-Mar-27 22:24",
            "epoch_date_close_approach": 1585347840000,
            "relative_velocity": {
                "kilometers_per_second": "21.3230796747",
                "kilometers_per_hour": "76763.0868287828",
                "miles_per_hour": "47697.5969242512"
            },
            "miss_distance": {
                "astronomical": "0.0357927472",
                "lunar": "13.9233786608",
                "kilometers": "5354518.742568464",
                "miles": "3327143.6649302432"
            },
            "orbiting_body": "Earth"
        }
    ],
    "orbital_data": {
        "orbit_id": "5",
        "orbit_determination_date": "2020-03-27 05:58:56",
        "first_observation_date": "2020-03-22",
        "last_observation_date": "2020-03-26",
        "data_arc_in_days": 4,
        "observations_used": 35,
        "orbit_uncertainty": "8",
        "minimum_orbit_intersection": ".00261741",
        "jupiter_tisserand_invariant": "3.581",
        "epoch_osculation": "2458932.5",
        "eccentricity": ".7126684767717446",
        "semi_major_axis": "1.904155211352199",
        "inclination": "2.12638631962685",
        "ascending_node_longitude": "11.47914241080663",
        "orbital_period": "959.73635300944",
        "perihelion_distance": ".5471238173408479",
        "perihelion_argument": "268.9025879615403",
        "aphelion_distance": "3.26118660536355",
        "perihelion_time": "2458983.726459226507",
        "mean_anomaly": "340.7848006760236",
        "mean_motion": ".3751030153970411",
        "equinox": "J2000",
        "orbit_class": {
            "orbit_class_type": "APO",
            "orbit_class_description": "Near-Earth asteroid orbits which cross the Earth’s orbit similar to that of 1862 Apollo",
            "orbit_class_range": "a (semi-major axis) > 1.0 AU; q (perihelion) < 1.017 AU"
        }
    },
    "is_sentry_object": false
}